{"fetched_at":"2026-03-29T16:36:15Z","count":15609,"tles":[{"name":"STARLINK-30930","line1":"1 58385U 23178M   26087.80718925  .00000188  00000+0  18457-4 0  9998","line2":"2 58385  53.1601 271.9008 0001121  93.7485 266.3644 15.30197187132699","category":"Starlink"}]}